{"type":"FeatureCollection","features":[{"type":"Feature","geometry":{"type":"Point","coordinates":[17.825420513,59.46088445]},"properties":{"land":"SE","typ":"Olycka","msg":"Lastbil med släp som vält. Bärgning och uppröjningsarbete pågår. Trafiken kan passera via vägrenen. Slutprognosen är preliminär och kan komma att ändras.","allvar":"Stor påverkan","road":"E18","start":"2026-09-26T12:17:52.000Z"}},{"type":"Feature","geometry":{"type":"Point","coordinates":[17.825219197,59.460798953]},"properties":{"land":"SE","typ":"Olycka","msg":"Lastbil med släp som vält. Bärgning och uppröjningsarbete pågår. Slutprognosen är preliminär och kan komma att ändras.","allvar":"Mycket stor påverkan","road":"E18","start":"2026-09-26T12:19:05.000Z"}},{"type":"Feature","geometry":{"type":"Point","coordinates":[17.899344481,59.631434846]},"properties":{"land":"SE","typ":"Olycka","msg":"Singelolycka på avfarten. Polis på plats. ","allvar":"Mycket stor påverkan","road":"E4","start":"2026-09-26T20:24:42.000Z"}},{"type":"Feature","geometry":{"type":"Point","coordinates":[11.446497,55.431305]},"properties":{"land":"DK","typ":"Olycka","msg":"Uheld - E20 Vestmotorvejen fra Halsskov mod Ringsted mellem &lt;38&gt; Slagelse Ø og &lt;37&gt; Sorø · E20 Vestmotorvejen fra Halsskov mod Ringsted mellem &lt;38&gt; Slagelse Ø og &lt;37&gt; Sorø Uheld, Uheldsstedet er ikke sikret, Pas på","allvar":null,"road":null,"start":"2026-09-26T16:48:00.000Z"}}]}